22512,COSMOS 2234 [GLONASS],1993,675.73,-1.0,-,64.66,Inactive,0,MEO,Kazakhstan,Russia/USSR,Unknown,Unknown,Unknown,1 22512U 93010A   25122.46266411  .00000017  00000+0  00000+0 0  9993,2 22512  64.6633  84.1744 0022740 214.2527 238.8088  2.13103563250387,2.13103563,0.002274,MEO
22513,COSMOS 2236 [GLONASS],1993,675.72,-1.0,-,64.66,Inactive,0,MEO,Kazakhstan,Russia/USSR,Unknown,Unknown,Unknown,1 22513U 93010B   25122.44711855  .00000017  00000+0  00000+0 0  9999,2 22513  64.6577  84.0786 0004378  71.8724  95.0436  2.13104502250624,2.13104502,0.0004378,MEO
22514,COSMOS 2235 [GLONASS],1993,675.73,-1.0,-,64.68,Inactive,0,MEO,Kazakhstan,Russia/USSR,Unknown,Unknown,Unknown,1 22514U 93010C   25122.40728506  .00000018  00000+0  00000+0 0  9998,2 22514  64.6753  84.3982 0008802 215.9932 328.2367  2.13102502250532,2.13102502,0.0008802,MEO
23203,COSMOS 2287 [GLONASS],1994,675.73,-1.0,-,65.42,Inactive,0,MEO,Kazakhstan,Russia/USSR,Unknown,Unknown,Unknown,1 23203U 94050A   25122.48073144 -.00000005  00000+0  00000+0 0  9995,2 23203  65.4173 215.5366 0011629  22.1198 311.2831  2.13101294239093,2.13101294,0.0011629,MEO
23205,COSMOS 2288 [GLONASS],1994,675.73,-1.0,-,65.41,Inactive,0,MEO,Kazakhstan,Russia/USSR,Unknown,Unknown,Unknown,1 23205U 94050C   25122.60704809 -.00000007  00000+0  00000+0 0  9992,2 23205  65.4120 215.4699 0001908 300.4317  78.1936  2.13101364239148,2.13101364,0.0001908,MEO
23396,COSMOS 2295 [GLONASS],1994,675.73,-1.0,-,64.61,Inactive,0,MEO,Kazakhstan,Russia/USSR,Unknown,Unknown,Unknown,1 23396U 94076A   25122.48968225  .00000016  00000+0  00000+0 0  9990,2 23396  64.6090  83.2538 0037805 204.1639 260.6431  2.13102555236756,2.13102555,0.0037805,MEO
23397,COSMOS 2296 [GLONASS],1994,675.74,-1.0,-,64.6,Inactive,0,MEO,Kazakhstan,Russia/USSR,Unknown,Unknown,Unknown,1 23397U 94076B   25123.23333683  .00000018  00000+0  00000+0 0  9991,2 23397  64.5997  83.0886 0010971 261.1749 184.8280  2.13099558236753,2.13099558,0.0010971,MEO
23398,COSMOS 2294 [GLONASS],1994,675.73,-1.0,-,64.59,Inactive,0,MEO,Kazakhstan,Russia/USSR,Unknown,Unknown,Unknown,1 23398U 94076C   25122.46809146  .00000015  00000+0  00000+0 0  9995,2 23398  64.5926  82.9539 0004723  22.9803 336.7238  2.13101787236929,2.13101787,0.0004723,MEO
