[
    {
        "OBJECT_NAME": "COSMOS 2234 [GLONASS]",
        "OBJECT_ID": "1993-010A",
        "EPOCH": "2025-05-02T11:06:14.179104",
        "MEAN_MOTION": 2.13103563,
        "ECCENTRICITY": 0.002274,
        "INCLINATION": 64.6633,
        "RA_OF_ASC_NODE": 84.1744,
        "ARG_OF_PERICENTER": 214.2527,
        "MEAN_ANOMALY": 238.8088,
        "EPHEMERIS_TYPE": 0,
        "CLASSIFICATION_TYPE": "U",
        "NORAD_CAT_ID": 22512,
        "ELEMENT_SET_NO": 999,
        "REV_AT_EPOCH": 25038,
        "BSTAR": 0,
        "MEAN_MOTION_DOT": 1.7e-07,
        "MEAN_MOTION_DDOT": 0
    },
    {
        "OBJECT_NAME": "COSMOS 2236 [GLONASS]",
        "OBJECT_ID": "1993-010B",
        "EPOCH": "2025-05-02T10:43:51.042720",
        "MEAN_MOTION": 2.13104502,
        "ECCENTRICITY": 0.0004378,
        "INCLINATION": 64.6577,
        "RA_OF_ASC_NODE": 84.0786,
        "ARG_OF_PERICENTER": 71.8724,
        "MEAN_ANOMALY": 95.0436,
        "EPHEMERIS_TYPE": 0,
        "CLASSIFICATION_TYPE": "U",
        "NORAD_CAT_ID": 22513,
        "ELEMENT_SET_NO": 999,
        "REV_AT_EPOCH": 25062,
        "BSTAR": 0,
        "MEAN_MOTION_DOT": 1.7e-07,
        "MEAN_MOTION_DDOT": 0
    },
    {
        "OBJECT_NAME": "COSMOS 2235 [GLONASS]",
        "OBJECT_ID": "1993-010C",
        "EPOCH": "2025-05-02T09:46:29.429184",
        "MEAN_MOTION": 2.13102502,
        "ECCENTRICITY": 0.0008802,
        "INCLINATION": 64.6753,
        "RA_OF_ASC_NODE": 84.3982,
        "ARG_OF_PERICENTER": 215.9932,
        "MEAN_ANOMALY": 328.2367,
        "EPHEMERIS_TYPE": 0,
        "CLASSIFICATION_TYPE": "U",
        "NORAD_CAT_ID": 22514,
        "ELEMENT_SET_NO": 999,
        "REV_AT_EPOCH": 25053,
        "BSTAR": 0,
        "MEAN_MOTION_DOT": 1.8e-07,
        "MEAN_MOTION_DDOT": 0
    },
    {
        "OBJECT_NAME": "COSMOS 2287 [GLONASS]",
        "OBJECT_ID": "1994-050A",
        "EPOCH": "2025-05-02T11:32:15.196416",
        "MEAN_MOTION": 2.13101294,
        "ECCENTRICITY": 0.0011629,
        "INCLINATION": 65.4173,
        "RA_OF_ASC_NODE": 215.5366,
        "ARG_OF_PERICENTER": 22.1198,
        "MEAN_ANOMALY": 311.2831,
        "EPHEMERIS_TYPE": 0,
        "CLASSIFICATION_TYPE": "U",
        "NORAD_CAT_ID": 23203,
        "ELEMENT_SET_NO": 999,
        "REV_AT_EPOCH": 23909,
        "BSTAR": 0,
        "MEAN_MOTION_DOT": -5e-08,
        "MEAN_MOTION_DDOT": 0
    },
    {
        "OBJECT_NAME": "COSMOS 2288 [GLONASS]",
        "OBJECT_ID": "1994-050C",
        "EPOCH": "2025-05-02T14:34:08.954976",
        "MEAN_MOTION": 2.13101364,
        "ECCENTRICITY": 0.0001908,
        "INCLINATION": 65.412,
        "RA_OF_ASC_NODE": 215.4699,
        "ARG_OF_PERICENTER": 300.4317,
        "MEAN_ANOMALY": 78.1936,
        "EPHEMERIS_TYPE": 0,
        "CLASSIFICATION_TYPE": "U",
        "NORAD_CAT_ID": 23205,
        "ELEMENT_SET_NO": 999,
        "REV_AT_EPOCH": 23914,
        "BSTAR": 0,
        "MEAN_MOTION_DOT": -7e-08,
        "MEAN_MOTION_DDOT": 0
    },
    {
        "OBJECT_NAME": "COSMOS 2295 [GLONASS]",
        "OBJECT_ID": "1994-076A",
        "EPOCH": "2025-05-02T11:45:08.546400",
        "MEAN_MOTION": 2.13102555,
        "ECCENTRICITY": 0.0037805,
        "INCLINATION": 64.609,
        "RA_OF_ASC_NODE": 83.2538,
        "ARG_OF_PERICENTER": 204.1639,
        "MEAN_ANOMALY": 260.6431,
        "EPHEMERIS_TYPE": 0,
        "CLASSIFICATION_TYPE": "U",
        "NORAD_CAT_ID": 23396,
        "ELEMENT_SET_NO": 999,
        "REV_AT_EPOCH": 23675,
        "BSTAR": 0,
        "MEAN_MOTION_DOT": 1.6e-07,
        "MEAN_MOTION_DDOT": 0
    },
    {
        "OBJECT_NAME": "COSMOS 2296 [GLONASS]",
        "OBJECT_ID": "1994-076B",
        "EPOCH": "2025-05-03T05:36:00.302112",
        "MEAN_MOTION": 2.13099558,
        "ECCENTRICITY": 0.0010971,
        "INCLINATION": 64.5997,
        "RA_OF_ASC_NODE": 83.0886,
        "ARG_OF_PERICENTER": 261.1749,
        "MEAN_ANOMALY": 184.828,
        "EPHEMERIS_TYPE": 0,
        "CLASSIFICATION_TYPE": "U",
        "NORAD_CAT_ID": 23397,
        "ELEMENT_SET_NO": 999,
        "REV_AT_EPOCH": 23675,
        "BSTAR": 0,
        "MEAN_MOTION_DOT": 1.8e-07,
        "MEAN_MOTION_DDOT": 0
    },
    {
        "OBJECT_NAME": "COSMOS 2294 [GLONASS]",
        "OBJECT_ID": "1994-076C",
        "EPOCH": "2025-05-02T11:14:03.102144",
        "MEAN_MOTION": 2.13101787,
        "ECCENTRICITY": 0.0004723,
        "INCLINATION": 64.5926,
        "RA_OF_ASC_NODE": 82.9539,
        "ARG_OF_PERICENTER": 22.9803,
        "MEAN_ANOMALY": 336.7238,
        "EPHEMERIS_TYPE": 0,
        "CLASSIFICATION_TYPE": "U",
        "NORAD_CAT_ID": 23398,
        "ELEMENT_SET_NO": 999,
        "REV_AT_EPOCH": 23692,
        "BSTAR": 0,
        "MEAN_MOTION_DOT": 1.5e-07,
        "MEAN_MOTION_DDOT": 0
    }
]